OBJECT_NAME,OBJECT_ID,EPOCH,MEAN_MOTION,ECCENTRICITY,INCLINATION,RA_OF_ASC_NODE,ARG_OF_PERICENTER,MEAN_ANOMALY,EPHEMERIS_TYPE,CLASSIFICATION_TYPE,NORAD_CAT_ID,ELEMENT_SET_NO,REV_AT_EPOCH,BSTAR,MEAN_MOTION_DOT,MEAN_MOTION_DDOT
SKY MUSTER 2 (NBN1B),2016-060B,2026-06-14T18:55:42.705408,1.00270335,.00012796,0.0169,327.8167,110.1865,253.8137,0,U,41794,999,3549,0,-.238E-5,0
HIMAWARI-9,2016-064A,2026-06-16T13:40:59.753856,1.00270792,.00009002,0.0207,275.9514,215.0227,119.8759,0,U,41836,999,3520,0,-.277E-5,0
SHIJIAN-17 (SJ-17),2016-065A,2026-06-16T12:17:34.702080,0.99854355,.0001754,5.7515,72.6128,28.3128,225.0479,0,U,41838,999,3519,0,.64E-6,0
GOES 16,2016-071A,2026-06-16T11:54:38.688768,1.00270963,.00002168,0.3397,85.5055,304.5214,308.7064,0,U,41866,999,3509,0,-.93E-6,0
TIANLIAN 1-04,2016-072A,2026-06-16T13:51:23.377824,1.00271285,.00423523,0.8662,82.9181,89.8907,116.6629,0,U,41869,999,3529,0,.28E-6,0
WGS F8 (USA 272),2016-075A,2026-06-16T05:10:17.745024,1.00267778,.0000218,0.0420,49.5723,306.7768,135.5298,0,U,41879,999,3481,0,0,0
FENGYUN 4A,2016-077A,2026-06-16T15:51:06.515712,1.00268738,.00087087,2.3208,80.2817,153.3649,32.8183,0,U,41882,999,3492,0,-.36E-5,0
ECHOSTAR 19,2016-079A,2026-06-16T14:15:51.033024,1.00268858,.00010678,0.0166,17.0546,62.5883,302.0783,0,U,41893,999,3469,0,-.14E-5,0
JCSAT-110A (JCSAT-15),2016-082A,2026-06-16T06:41:27.939840,1.00269294,.00003496,0.0170,6.5193,95.3847,13.0722,0,U,41903,999,3475,0,-.351E-5,0
STAR ONE D1,2016-082B,2026-06-16T07:37:38.512704,1.00271172,.00023183,0.0212,54.8933,42.6316,197.4830,0,U,41904,999,3476,0,-.212E-5,0
TJS-2,2017-001A,2026-06-16T13:19:49.971072,1.00269449,.00002973,0.8321,85.3300,74.3264,11.6879,0,U,41911,999,3471,0,-.8E-7,0
SBIRS GEO-4 (USA 273),2017-004A,2026-06-16T13:06:51.215904,1.00271869,.00018925,2.2420,43.2724,32.5714,46.5822,0,U,41937,999,3459,0,.12E-5,0
HISPASAT 36W-1,2017-006A,2026-06-15T09:27:59.747328,1.00270353,.00010074,0.0112,295.6817,146.7911,287.2118,0,U,41942,999,3422,0,-.241E-5,0
TELKOM 3S,2017-007A,2026-06-16T13:34:30.375840,1.00271198,.00020714,0.0140,291.0604,147.2115,148.1948,0,U,41944,999,3413,0,-.364E-5,0
INTELSAT 32E (IS-32E),2017-007B,2026-06-16T12:48:15.499008,1.00269133,.00007608,0.0153,339.8589,330.3179,103.5119,0,U,41945,999,3421,0,-.271E-5,0
ECHOSTAR 23,2017-014A,2026-06-15T08:12:01.800000,1.00271052,.0002061,0.0171,354.9893,87.6193,194.1317,0,U,42070,999,3390,0,-.54E-6,0
WGS F9 (USA 275),2017-016A,2026-06-15T23:16:11.764704,1.00270742,.00003292,0.0265,341.5265,306.2332,313.5298,0,U,42075,999,3388,0,0,0
SES-10,2017-017A,2026-06-16T12:41:46.120992,1.00268943,.00025765,0.0214,34.4598,56.2690,297.6100,0,U,42432,999,3374,0,-.274E-5,0
CHINASAT 16 (SJ-13),2017-018A,2026-06-16T06:41:35.428128,1.00267037,.00040939,0.0970,91.5249,140.4779,243.4712,0,U,42662,999,3374,0,-.353E-5,0
KOREASAT 7,2017-023A,2026-06-16T06:43:20.259840,1.00271028,.00007655,0.0261,30.9397,58.4604,31.8841,0,U,42691,999,3336,0,-.362E-5,0
SGDC,2017-023B,2026-06-16T11:20:31.394112,1.00270918,.00024662,0.0499,77.8444,15.7125,266.4651,0,U,42692,999,3339,0,-.251E-5,0
GSAT-9,2017-024A,2026-06-16T15:01:31.839744,1.00269366,.00025398,0.0096,82.4298,2.9569,142.2282,0,U,42695,999,3329,0,-.288E-5,0
INMARSAT 5-F4,2017-025A,2026-06-16T11:34:17.008320,1.00271320,.00007296,0.0167,13.4369,348.9227,132.4430,0,U,42698,999,3327,0,.74E-6,0
SES-15,2017-026A,2026-06-16T12:24:05.330304,1.00268066,.00004027,0.0194,338.0719,53.1315,290.4171,0,U,42709,999,742,0,.59E-6,0
QZS-2 (MICHIBIKI-2),2017-028A,2026-06-15T12:28:38.731008,1.00284423,.07605138,39.4302,243.1796,269.2356,80.1810,0,U,42738,999,760,0,-.144E-5,0
VIASAT-2,2017-029A,2026-06-15T06:45:38.797056,1.00271133,.00002305,0.0163,300.2829,23.4675,331.3379,0,U,42740,999,3318,0,-.262E-5,0
EUTELSAT 172B,2017-029B,2026-06-16T12:07:17.684256,1.00272811,.00000293,0.0074,81.0645,118.9568,58.6035,0,U,42741,999,3373,0,-.7E-7,0
GSAT-19,2017-031A,2026-06-16T13:14:35.474208,1.00273831,.00070133,0.0403,265.3670,162.7689,83.2111,0,U,42747,999,3314,0,.123E-5,0
ECHOSTAR 21,2017-032A,2026-06-16T13:03:51.503040,1.00273035,.00020432,1.7709,355.6815,97.3138,18.0589,0,U,42749,999,3309,0,.64E-6,0
BULGARIASAT-1,2017-038A,2026-06-16T13:01:14.254176,1.00271690,.00031226,0.0264,2.4831,99.8517,359.6946,0,U,42801,999,3284,0,0,0
HELLAS-SAT 3,2017-040A,2026-06-16T13:11:58.225344,1.00270858,.00046987,0.0474,43.3280,9.5853,88.8753,0,U,42814,999,3280,0,.151E-5,0
GSAT-17,2017-040B,2026-06-16T15:32:14.798400,1.00268161,.00020387,0.0188,15.6999,290.4979,285.2753,0,U,42815,999,3278,0,0,0
