SKY MUSTER 2 (NBN1B)    
1 41794U 16060B   26165.78868872 -.00000238  00000+0  00000+0 0  9994
2 41794   0.0169 327.8167 0001279 110.1865 253.8137  1.00270335 35499
HIMAWARI-9              
1 41836U 16064A   26167.57013604 -.00000277  00000+0  00000+0 0  9992
2 41836   0.0207 275.9514 0000900 215.0227 119.8759  1.00270792 35202
SHIJIAN-17 (SJ-17)      
1 41838U 16065A   26167.51220720  .00000064  00000+0  00000+0 0  9991
2 41838   5.7515  72.6128 0001754  28.3128 225.0479  0.99854355 35191
GOES 16                 
1 41866U 16071A   26167.49628112 -.00000093  00000+0  00000+0 0  9996
2 41866   0.3397  85.5055 0000216 304.5214 308.7064  1.00270963 35098
TIANLIAN 1-04           
1 41869U 16072A   26167.57735391  .00000028  00000+0  00000+0 0  9994
2 41869   0.8662  82.9181 0042352  89.8907 116.6629  1.00271285 35294
WGS F8 (USA 272)        
1 41879U 16075A   26167.21548316  .00000000  00000+0  00000+0 0  9998
2 41879   0.0420  49.5723 0000218 306.7768 135.5298  1.00267778 34812
FENGYUN 4A              
1 41882U 16077A   26167.66049208 -.00000360  00000+0  00000+0 0  9999
2 41882   2.3208  80.2817 0008708 153.3649  32.8183  1.00268738 34928
ECHOSTAR 19             
1 41893U 16079A   26167.59434066 -.00000140  00000+0  00000+0 0  9991
2 41893   0.0166  17.0546 0001067  62.5883 302.0783  1.00268858 34692
JCSAT-110A (JCSAT-15)   
1 41903U 16082A   26167.27879560 -.00000351  00000+0  00000+0 0  9998
2 41903   0.0170   6.5193 0000349  95.3847  13.0722  1.00269294 34750
STAR ONE D1             
1 41904U 16082B   26167.31780686 -.00000212  00000+0  00000+0 0  9990
2 41904   0.0212  54.8933 0002318  42.6316 197.4830  1.00271172 34766
TJS-2                   
1 41911U 17001A   26167.55543948 -.00000008  00000+0  00000+0 0  9997
2 41911   0.8321  85.3300 0000297  74.3264  11.6879  1.00269449 34717
SBIRS GEO-4 (USA 273)   
1 41937U 17004A   26167.54642611  .00000120  00000+0  00000+0 0  9998
2 41937   2.2420  43.2724 0001892  32.5714  46.5822  1.00271869 34592
HISPASAT 36W-1          
1 41942U 17006A   26166.39444152 -.00000241  00000+0  00000+0 0  9993
2 41942   0.0112 295.6817 0001007 146.7911 287.2118  1.00270353 34222
TELKOM 3S               
1 41944U 17007A   26167.56562935 -.00000364  00000+0  00000+0 0  9992
2 41944   0.0140 291.0604 0002071 147.2115 148.1948  1.00271198 34137
INTELSAT 32E (IS-32E)   
1 41945U 17007B   26167.53351272 -.00000271  00000+0  00000+0 0  9997
2 41945   0.0153 339.8589 0000760 330.3179 103.5119  1.00269133 34213
ECHOSTAR 23             
1 42070U 17014A   26166.34168750 -.00000054  00000+0  00000+0 0  9999
2 42070   0.0171 354.9893 0002061  87.6193 194.1317  1.00271052 33907
WGS F9 (USA 275)        
1 42075U 17016A   26166.96958061  .00000000  00000+0  00000+0 0  9996
2 42075   0.0265 341.5265 0000329 306.2332 313.5298  1.00270742 33888
SES-10                  
1 42432U 17017A   26167.52900603 -.00000274  00000+0  00000+0 0  9990
2 42432   0.0214  34.4598 0002576  56.2690 297.6100  1.00268943 33740
CHINASAT 16 (SJ-13)     
1 42662U 17018A   26167.27888227 -.00000353  00000+0  00000+0 0  9993
2 42662   0.0970  91.5249 0004093 140.4779 243.4712  1.00267037 33742
KOREASAT 7              
1 42691U 17023A   26167.28009560 -.00000362  00000+0  00000+0 0  9997
2 42691   0.0261  30.9397 0000765  58.4604  31.8841  1.00271028 33360
SGDC                    
1 42692U 17023B   26167.47258558 -.00000251  00000+0  00000+0 0  9999
2 42692   0.0499  77.8444 0002466  15.7125 266.4651  1.00270918 33396
GSAT-9                  
1 42695U 17024A   26167.62606296 -.00000288  00000+0  00000+0 0  9996
2 42695   0.0096  82.4298 0002539   2.9569 142.2282  1.00269366 33297
INMARSAT 5-F4           
1 42698U 17025A   26167.48214130  .00000074  00000+0  00000+0 0  9998
2 42698   0.0167  13.4369 0000729 348.9227 132.4430  1.00271320 33272
SES-15                  
1 42709U 17026A   26167.51672836  .00000059  00000+0  00000+0 0  9990
2 42709   0.0194 338.0719 0000402  53.1315 290.4171  1.00268066  7429
QZS-2 (MICHIBIKI-2)     
1 42738U 17028A   26166.51989272 -.00000144  00000+0  00000+0 0  9994
2 42738  39.4302 243.1796 0760513 269.2356  80.1810  1.00284423  7609
VIASAT-2                
1 42740U 17029A   26166.28169904 -.00000262  00000+0  00000+0 0  9995
2 42740   0.0163 300.2829 0000230  23.4675 331.3379  1.00271133 33187
EUTELSAT 172B           
1 42741U 17029B   26167.50506579 -.00000007  00000+0  00000+0 0  9992
2 42741   0.0074  81.0645 0000029 118.9568  58.6035  1.00272811 33739
GSAT-19                 
1 42747U 17031A   26167.55179947  .00000123  00000+0  00000+0 0  9999
2 42747   0.0403 265.3670 0007013 162.7689  83.2111  1.00273831 33144
ECHOSTAR 21             
1 42749U 17032A   26167.54434610  .00000064  00000+0  00000+0 0  9996
2 42749   1.7709 355.6815 0002043  97.3138  18.0589  1.00273035 33092
BULGARIASAT-1           
1 42801U 17038A   26167.54252609  .00000000  00000+0  00000+0 0  9997
2 42801   0.0264   2.4831 0003122  99.8517 359.6946  1.00271690 32849
HELLAS-SAT 3            
1 42814U 17040A   26167.54997946  .00000151  00000+0  00000+0 0  9991
2 42814   0.0474  43.3280 0004698   9.5853  88.8753  1.00270858 32806
GSAT-17                 
1 42815U 17040B   26167.64739350  .00000000  00000+0  00000+0 0  9999
2 42815   0.0188  15.6999 0002038 290.4979 285.2753  1.00268161 32788
